CCSDS_OMM_VERS = 2.0
CREATION_DATE  = 
ORIGINATOR     = 

OBJECT_NAME    = CYGNUS NG-23
OBJECT_ID      = 2025-208A
CENTER_NAME    = EARTH
REF_FRAME      = TEME
TIME_SYSTEM    = UTC
MEAN_ELEMENT_THEORY = SGP/SGP4

EPOCH          = 2025-12-17T01:19:48.717408
MEAN_MOTION    = 15.49629327
ECCENTRICITY   = .00031735
INCLINATION    = 51.6309
RA_OF_ASC_NODE = 121.1077
ARG_OF_PERICENTER = 260.4156
MEAN_ANOMALY   = 99.6474

EPHEMERIS_TYPE = 0
CLASSIFICATION_TYPE = U
NORAD_CAT_ID   = 65616
ELEMENT_SET_NO = 999
REV_AT_EPOCH   = 22
BSTAR          = .14583435E-3
MEAN_MOTION_DOT = .777E-4
MEAN_MOTION_DDOT = 0

CCSDS_OMM_VERS = 2.0
CREATION_DATE  = 
ORIGINATOR     = 

OBJECT_NAME    = DRAGONFLY
OBJECT_ID      = 1998-067XH
CENTER_NAME    = EARTH
REF_FRAME      = TEME
TIME_SYSTEM    = UTC
MEAN_ELEMENT_THEORY = SGP/SGP4

EPOCH          = 2025-12-16T13:13:48.986688
MEAN_MOTION    = 15.73199780
ECCENTRICITY   = .00071179
INCLINATION    = 51.6242
RA_OF_ASC_NODE = 116.2265
ARG_OF_PERICENTER = 302.7560
MEAN_ANOMALY   = 57.2752

EPHEMERIS_TYPE = 0
CLASSIFICATION_TYPE = U
NORAD_CAT_ID   = 65729
ELEMENT_SET_NO = 999
REV_AT_EPOCH   = 1376
BSTAR          = .10910742E-2
MEAN_MOTION_DOT = .155828E-2
MEAN_MOTION_DDOT = 0

CCSDS_OMM_VERS = 2.0
CREATION_DATE  = 
ORIGINATOR     = 

OBJECT_NAME    = 1998-067XK
OBJECT_ID      = 1998-067XK
CENTER_NAME    = EARTH
REF_FRAME      = TEME
TIME_SYSTEM    = UTC
MEAN_ELEMENT_THEORY = SGP/SGP4

EPOCH          = 2025-12-17T07:52:39.640512
MEAN_MOTION    = 15.66619236
ECCENTRICITY   = .0004756
INCLINATION    = 51.6284
RA_OF_ASC_NODE = 113.9366
ARG_OF_PERICENTER = 276.4225
MEAN_ANOMALY   = 83.6229

EPHEMERIS_TYPE = 0
CLASSIFICATION_TYPE = U
NORAD_CAT_ID   = 65731
ELEMENT_SET_NO = 999
REV_AT_EPOCH   = 1386
BSTAR          = .81077835E-3
MEAN_MOTION_DOT = .87081E-3
MEAN_MOTION_DDOT = 0

CCSDS_OMM_VERS = 2.0
CREATION_DATE  = 
ORIGINATOR     = 

OBJECT_NAME    = RSP-03
OBJECT_ID      = 1998-067XL
CENTER_NAME    = EARTH
REF_FRAME      = TEME
TIME_SYSTEM    = UTC
MEAN_ELEMENT_THEORY = SGP/SGP4

EPOCH          = 2025-12-16T14:58:29.275680
MEAN_MOTION    = 15.69615447
ECCENTRICITY   = .00056224
INCLINATION    = 51.6264
RA_OF_ASC_NODE = 116.7219
ARG_OF_PERICENTER = 277.2620
MEAN_ANOMALY   = 82.7738

EPHEMERIS_TYPE = 0
CLASSIFICATION_TYPE = U
NORAD_CAT_ID   = 65732
ELEMENT_SET_NO = 999
REV_AT_EPOCH   = 1377
BSTAR          = .94839264E-3
MEAN_MOTION_DOT = .115729E-2
MEAN_MOTION_DDOT = 0

CCSDS_OMM_VERS = 2.0
CREATION_DATE  = 
ORIGINATOR     = 

OBJECT_NAME    = GHS-01
OBJECT_ID      = 1998-067XM
CENTER_NAME    = EARTH
REF_FRAME      = TEME
TIME_SYSTEM    = UTC
MEAN_ELEMENT_THEORY = SGP/SGP4

EPOCH          = 2025-12-17T01:34:57.772416
MEAN_MOTION    = 15.76705040
ECCENTRICITY   = .00077979
INCLINATION    = 51.6275
RA_OF_ASC_NODE = 112.9208
ARG_OF_PERICENTER = 309.7819
MEAN_ANOMALY   = 50.2494

EPHEMERIS_TYPE = 0
CLASSIFICATION_TYPE = U
NORAD_CAT_ID   = 65733
ELEMENT_SET_NO = 999
REV_AT_EPOCH   = 1386
BSTAR          = .11963586E-2
MEAN_MOTION_DOT = .200259E-2
MEAN_MOTION_DDOT = 0

CCSDS_OMM_VERS = 2.0
CREATION_DATE  = 
ORIGINATOR     = 

OBJECT_NAME    = YOTSUBA-KULOVER
OBJECT_ID      = 1998-067XN
CENTER_NAME    = EARTH
REF_FRAME      = TEME
TIME_SYSTEM    = UTC
MEAN_ELEMENT_THEORY = SGP/SGP4

EPOCH          = 2025-12-16T14:54:10.853280
MEAN_MOTION    = 15.59985033
ECCENTRICITY   = .00014592
INCLINATION    = 51.6282
RA_OF_ASC_NODE = 120.4613
ARG_OF_PERICENTER = 292.1700
MEAN_ANOMALY   = 67.9139

EPHEMERIS_TYPE = 0
CLASSIFICATION_TYPE = U
NORAD_CAT_ID   = 65941
ELEMENT_SET_NO = 999
REV_AT_EPOCH   = 1046
BSTAR          = .69919558E-3
MEAN_MOTION_DOT = .57497E-3
MEAN_MOTION_DDOT = 0

CCSDS_OMM_VERS = 2.0
CREATION_DATE  = 
ORIGINATOR     = 

OBJECT_NAME    = BOTAN
OBJECT_ID      = 1998-067XP
CENTER_NAME    = EARTH
REF_FRAME      = TEME
TIME_SYSTEM    = UTC
MEAN_ELEMENT_THEORY = SGP/SGP4

EPOCH          = 2025-12-17T01:33:35.223264
MEAN_MOTION    = 15.63787081
ECCENTRICITY   = .00028324
INCLINATION    = 51.6279
RA_OF_ASC_NODE = 117.4271
ARG_OF_PERICENTER = 275.6508
MEAN_ANOMALY   = 84.4163

EPHEMERIS_TYPE = 0
CLASSIFICATION_TYPE = U
NORAD_CAT_ID   = 65942
ELEMENT_SET_NO = 999
REV_AT_EPOCH   = 1054
BSTAR          = .10066174E-2
MEAN_MOTION_DOT = .96733E-3
MEAN_MOTION_DDOT = 0

CCSDS_OMM_VERS = 2.0
CREATION_DATE  = 
ORIGINATOR     = 

OBJECT_NAME    = E-KAGAKU-1
OBJECT_ID      = 1998-067XQ
CENTER_NAME    = EARTH
REF_FRAME      = TEME
TIME_SYSTEM    = UTC
MEAN_ELEMENT_THEORY = SGP/SGP4

EPOCH          = 2025-12-15T15:50:32.577792
MEAN_MOTION    = 15.59851021
ECCENTRICITY   = .00016366
INCLINATION    = 51.6292
RA_OF_ASC_NODE = 125.2990
ARG_OF_PERICENTER = 221.4661
MEAN_ANOMALY   = 138.6208

EPHEMERIS_TYPE = 0
CLASSIFICATION_TYPE = U
NORAD_CAT_ID   = 65943
ELEMENT_SET_NO = 999
REV_AT_EPOCH   = 1031
BSTAR          = .6409113E-3
MEAN_MOTION_DOT = .52357E-3
MEAN_MOTION_DDOT = 0

CCSDS_OMM_VERS = 2.0
CREATION_DATE  = 
ORIGINATOR     = 

OBJECT_NAME    = HRC MONOBLOCK CAMERA
OBJECT_ID      = 1998-067XR
CENTER_NAME    = EARTH
REF_FRAME      = TEME
TIME_SYSTEM    = UTC
MEAN_ELEMENT_THEORY = SGP/SGP4

EPOCH          = 2025-12-17T08:16:19.927776
MEAN_MOTION    = 15.54464210
ECCENTRICITY   = .00027548
INCLINATION    = 51.6293
RA_OF_ASC_NODE = 118.5398
ARG_OF_PERICENTER = 204.8669
MEAN_ANOMALY   = 155.2190

EPHEMERIS_TYPE = 0
CLASSIFICATION_TYPE = U
NORAD_CAT_ID   = 66052
ELEMENT_SET_NO = 999
REV_AT_EPOCH   = 955
BSTAR          = .46391624E-3
MEAN_MOTION_DOT = .3073E-3
MEAN_MOTION_DDOT = 0

CCSDS_OMM_VERS = 2.0
CREATION_DATE  = 
ORIGINATOR     = 

OBJECT_NAME    = HTV-X1
OBJECT_ID      = 2025-241A
CENTER_NAME    = EARTH
REF_FRAME      = TEME
TIME_SYSTEM    = UTC
MEAN_ELEMENT_THEORY = SGP/SGP4

EPOCH          = 2025-12-17T01:19:48.717408
MEAN_MOTION    = 15.49629327
ECCENTRICITY   = .00031735
INCLINATION    = 51.6309
RA_OF_ASC_NODE = 121.1077
ARG_OF_PERICENTER = 260.4156
MEAN_ANOMALY   = 99.6474

EPHEMERIS_TYPE = 0
CLASSIFICATION_TYPE = U
NORAD_CAT_ID   = 66174
ELEMENT_SET_NO = 999
REV_AT_EPOCH   = 51
BSTAR          = .14583435E-3
MEAN_MOTION_DOT = .777E-4
MEAN_MOTION_DDOT = 0

CCSDS_OMM_VERS = 2.0
CREATION_DATE  = 
ORIGINATOR     = 

OBJECT_NAME    = SZ-21 MODULE
OBJECT_ID      = 2025-246C
CENTER_NAME    = EARTH
REF_FRAME      = TEME
TIME_SYSTEM    = UTC
MEAN_ELEMENT_THEORY = SGP/SGP4

EPOCH          = 2025-12-17T06:26:59.040960
MEAN_MOTION    = 15.62718015
ECCENTRICITY   = .00059901
INCLINATION    = 41.4771
RA_OF_ASC_NODE = 348.4140
ARG_OF_PERICENTER = 284.3104
MEAN_ANOMALY   = 75.7070

EPHEMERIS_TYPE = 0
CLASSIFICATION_TYPE = U
NORAD_CAT_ID   = 66515
ELEMENT_SET_NO = 999
REV_AT_EPOCH   = 515
BSTAR          = .25031156E-3
MEAN_MOTION_DOT = .22864E-3
MEAN_MOTION_DDOT = 0

CCSDS_OMM_VERS = 2.0
CREATION_DATE  = 
ORIGINATOR     = 

OBJECT_NAME    = SHENZHOU-22
OBJECT_ID      = 2025-272A
CENTER_NAME    = EARTH
REF_FRAME      = TEME
TIME_SYSTEM    = UTC
MEAN_ELEMENT_THEORY = SGP/SGP4

EPOCH          = 2025-12-17T07:49:42.593088
MEAN_MOTION    = 15.59373916
ECCENTRICITY   = .0007759
INCLINATION    = 41.4681
RA_OF_ASC_NODE = 348.8601
ARG_OF_PERICENTER = 70.4303
MEAN_ANOMALY   = 289.7373

EPHEMERIS_TYPE = 0
CLASSIFICATION_TYPE = U
NORAD_CAT_ID   = 66645
ELEMENT_SET_NO = 999
REV_AT_EPOCH   = 26357
BSTAR          = .25118398E-3
MEAN_MOTION_DOT = .20139E-3
MEAN_MOTION_DDOT = 0

