CYGNUS NG-23            
1 65616U 25208A   25351.05542497  .00007770  00000+0  14583-3 0  9997
2 65616  51.6309 121.1077 0003173 260.4156  99.6474 15.49629327   228
DRAGONFLY               
1 65729U 98067XH  25350.55126142  .00155828  00000+0  10911-2 0  9992
2 65729  51.6242 116.2265 0007117 302.7560  57.2752 15.73199780 13768
1998-067XK              
1 65731U 98067XK  25351.32823658  .00087081  00000+0  81078-3 0  9995
2 65731  51.6284 113.9366 0004756 276.4225  83.6229 15.66619236 13862
RSP-03                  
1 65732U 98067XL  25350.62394995  .00115729  00000+0  94839-3 0  9995
2 65732  51.6264 116.7219 0005622 277.2620  82.7738 15.69615447 13778
GHS-01                  
1 65733U 98067XM  25351.06594644  .00200259  00000+0  11964-2 0  9998
2 65733  51.6275 112.9208 0007797 309.7819  50.2494 15.76705040 13869
YOTSUBA-KULOVER         
1 65941U 98067XN  25350.62095895  .00057497  00000+0  69920-3 0  9994
2 65941  51.6282 120.4613 0001459 292.1700  67.9139 15.59985033 10462
BOTAN                   
1 65942U 98067XP  25351.06499101  .00096733  00000+0  10066-2 0  9994
2 65942  51.6279 117.4271 0002832 275.6508  84.4163 15.63787081 10541
E-KAGAKU-1              
1 65943U 98067XQ  25349.66009928  .00052357  00000+0  64091-3 0  9994
2 65943  51.6292 125.2990 0001636 221.4661 138.6208 15.59851021 10310
HRC MONOBLOCK CAMERA    
1 66052U 98067XR  25351.34467509  .00030730  00000+0  46392-3 0  9992
2 66052  51.6293 118.5398 0002754 204.8669 155.2190 15.54464210  9559
HTV-X1                  
1 66174U 25241A   25351.05542497  .00007770  00000+0  14583-3 0  9994
2 66174  51.6309 121.1077 0003173 260.4156  99.6474 15.49629327   510
SZ-21 MODULE            
1 66515U 25246C   25351.26873890  .00022864  00000+0  25031-3 0  9996
2 66515  41.4771 348.4140 0005990 284.3104  75.7070 15.62718015  5151
SHENZHOU-22             
1 66645U 25272A   25351.32618742  .00020139  00000+0  25118-3 0  9998
2 66645  41.4681 348.8601 0007759  70.4303 289.7373 15.59373916263579
